UMBRA-07                
1 58297U 23174AT  26204.16811497  .00010778  00000+0  67169-3 0  9993
2 58297  97.3775 258.5781 0001431 337.2149  22.9017 15.09722583148843
UMBRA-09                
1 60541U 24149CB  26204.17705612  .00015944  00000+0  76360-3 0  9996
2 60541  97.6968 292.0241 0002148 185.1546 174.9666 15.19029940106183
UMBRA-10                
1 60547U 24149CH  26204.17660671  .00017256  00000+0  82595-3 0  9992
2 60547  97.6971 292.0547 0002139 153.1674 206.9670 15.19031647106198
UMBRA-11                
1 66748U 25276CL  26204.15756170  .00022872  00000+0  83778-3 0  9995
2 66748  97.4181 278.5960 0003310 165.5406 194.5929 15.28018804 35985
UMBRA-12                
1 67371U 26004J   26204.24994400  .00004046  00000+0  42957-3 0  9995
2 67371  97.8034 202.5283 0006767  30.5925 329.5686 14.89580760 28679
