{"fetched_at":"2026-07-23T17:55:58.967Z","source":"https://celestrak.org/NORAD/elements/gp.php?NAME=UMBRA&FORMAT=JSON","constellation":"umbra","records":[{"OBJECT_NAME":"UMBRA-07","OBJECT_ID":"2023-174AT","EPOCH":"2026-07-23T04:02:05.133408","CLASSIFICATION_TYPE":"U","MEAN_MOTION":15.09722583,"ECCENTRICITY":0.00014318,"INCLINATION":97.3775,"RA_OF_ASC_NODE":258.5781,"ARG_OF_PERICENTER":337.2149,"MEAN_ANOMALY":22.9017,"EPHEMERIS_TYPE":0,"NORAD_CAT_ID":58297,"ELEMENT_SET_NO":999,"REV_AT_EPOCH":14884,"BSTAR":0.00067168539,"MEAN_MOTION_DOT":0.00010778,"MEAN_MOTION_DDOT":0},{"OBJECT_NAME":"UMBRA-09","OBJECT_ID":"2024-149CB","EPOCH":"2026-07-23T04:14:57.648768","CLASSIFICATION_TYPE":"U","MEAN_MOTION":15.1902994,"ECCENTRICITY":0.00021484,"INCLINATION":97.6968,"RA_OF_ASC_NODE":292.0241,"ARG_OF_PERICENTER":185.1546,"MEAN_ANOMALY":174.9666,"EPHEMERIS_TYPE":0,"NORAD_CAT_ID":60541,"ELEMENT_SET_NO":999,"REV_AT_EPOCH":10618,"BSTAR":0.00076359911,"MEAN_MOTION_DOT":0.00015944,"MEAN_MOTION_DDOT":0},{"OBJECT_NAME":"UMBRA-10","OBJECT_ID":"2024-149CH","EPOCH":"2026-07-23T04:14:18.819744","CLASSIFICATION_TYPE":"U","MEAN_MOTION":15.19031647,"ECCENTRICITY":0.00021395,"INCLINATION":97.6971,"RA_OF_ASC_NODE":292.0547,"ARG_OF_PERICENTER":153.1674,"MEAN_ANOMALY":206.967,"EPHEMERIS_TYPE":0,"NORAD_CAT_ID":60547,"ELEMENT_SET_NO":999,"REV_AT_EPOCH":10619,"BSTAR":0.00082594881,"MEAN_MOTION_DOT":0.00017256,"MEAN_MOTION_DDOT":0},{"OBJECT_NAME":"UMBRA-11","OBJECT_ID":"2025-276CL","EPOCH":"2026-07-23T03:46:53.330880","CLASSIFICATION_TYPE":"U","MEAN_MOTION":15.28018804,"ECCENTRICITY":0.00033103,"INCLINATION":97.4181,"RA_OF_ASC_NODE":278.596,"ARG_OF_PERICENTER":165.5406,"MEAN_ANOMALY":194.5929,"EPHEMERIS_TYPE":0,"NORAD_CAT_ID":66748,"ELEMENT_SET_NO":999,"REV_AT_EPOCH":3598,"BSTAR":0.00083777656,"MEAN_MOTION_DOT":0.00022872,"MEAN_MOTION_DDOT":0},{"OBJECT_NAME":"UMBRA-12","OBJECT_ID":"2026-004J","EPOCH":"2026-07-23T05:59:55.161600","CLASSIFICATION_TYPE":"U","MEAN_MOTION":14.8958076,"ECCENTRICITY":0.00067675,"INCLINATION":97.8034,"RA_OF_ASC_NODE":202.5283,"ARG_OF_PERICENTER":30.5925,"MEAN_ANOMALY":329.5686,"EPHEMERIS_TYPE":0,"NORAD_CAT_ID":67371,"ELEMENT_SET_NO":999,"REV_AT_EPOCH":2867,"BSTAR":0.00042956761,"MEAN_MOTION_DOT":0.00004046,"MEAN_MOTION_DDOT":0}]}
